NORAD_CAT_ID,OBJECT_NAME,OBJECT_TYPE,EPOCH,MEAN_MOTION,ECCENTRICITY,INCLINATION,RA_OF_ASC_NODE,ARG_OF_PERICENTER,MEAN_ANOMALY,BSTAR,MEAN_MOTION_DOT,MEAN_MOTION_DDOT,TLE_LINE0,TLE_LINE1,TLE_LINE2,SEMIMAJOR_AXIS,PERIOD,APOGEE,PERIGEE,DECAYED
54776.0,STARLINK-5470,PAYLOAD,2023-01-06 22:00:00,15.6151503,0.000121,53.2136,206.8475,79.6108,137.42,-0.014457,-0.01140525,0.0,0 STARLINK-5470,1 54776U 22175U   23006.91667824 -.01140525  00000-0 -14457-1 0  9992,2 54776  53.2136 206.8475 0001210  79.6108 137.4200 15.61515030  1306,6761.417,92.218,384.1,382.464,0.0
54776.0,STARLINK-5470,PAYLOAD,2023-01-07 06:00:00,15.60688371,9.6e-05,53.2131,205.2259,80.0557,211.3697,-0.015752,-0.01197018,0.0,0 STARLINK-5470,1 54776U 22175U   23007.25001157 -.01197018  00000-0 -15752-1 0  9999,2 54776  53.2131 205.2259 0000960  80.0557 211.3697 15.60688371  2951,6763.804,92.267,386.319,385.02,0.0
54776.0,STARLINK-5470,PAYLOAD,2023-01-08 00:00:00,15.58745255,0.0001190999999999,53.2125,201.5899,73.1317,111.9243,-0.016327,-0.01155859,0.0,0 STARLINK-5470,1 54776U 22175U   23008.00001157 -.01155859  00000-0 -16327-1 0  9999,2 54776  53.2125 201.5899 0001191  73.1317 111.9243 15.58745255  1309,6769.424,92.382,392.096,390.483,0.0
54776.0,STARLINK-5470,PAYLOAD,2023-01-08 06:00:00,15.58114939,0.0001153,53.2128,200.3779,75.9078,72.5377,-0.017353,-0.01194989,0.0,0 STARLINK-5470,1 54776U 22175U   23008.25001157 -.01194989  00000-0 -17353-1 0  9993,2 54776  53.2128 200.3779 0001153  75.9078  72.5377 15.58114939  3107,6771.25,92.419,393.896,392.334,0.0
54776.0,STARLINK-5470,PAYLOAD,2023-01-08 14:00:01,15.57282849,0.0001202,53.213,198.7658,89.3386,129.3723,-0.018318,-0.01219531,0.0,0 STARLINK-5470,1 54776U 22175U   23008.58334491 -.01219531  00000-0 -18318-1 0  9992,2 54776  53.2130 198.7658 0001202  89.3386 129.3723 15.57282849  1303,6773.661999999998,92.469,396.341,394.713,0.0
54776.0,STARLINK-5470,PAYLOAD,2023-01-08 22:00:00,15.56379973,0.0001081,53.2134,197.1579,75.1449,212.829,-0.017669,-0.01144998,0.0,0 STARLINK-5470,1 54776U 22175U   23008.91667824 -.01144998  00000-0 -17669-1 0  9990,2 54776  53.2134 197.1579 0001081  75.1449 212.8290 15.56379973  1301,6776.281,92.522,398.879,397.414,0.0
54776.0,STARLINK-5470,PAYLOAD,2023-01-09 06:00:00,15.5552958,0.0001062,53.2135,195.5483,82.1244,274.074,-0.018686,-0.01170283,0.0,0 STARLINK-5470,1 54776U 22175U   23009.25001157 -.01170283  00000-0 -18686-1 0  9995,2 54776  53.2135 195.5483 0001062  82.1244 274.0740 15.55529580  3265,6778.751,92.573,401.336,399.896,0.0
54776.0,STARLINK-5470,PAYLOAD,2023-01-09 14:00:01,15.54717185,0.0001256,53.2138,193.9424,84.8843,338.4843,-0.020367,-0.01250283,0.0,0 STARLINK-5470,1 54776U 22175U   23009.58334491 -.01250283  00000-0 -20367-1 0  9999,2 54776  53.2138 193.9424 0001256  84.8843 338.4843 15.54717185  1305,6781.111999999999,92.621,403.829,402.125,0.0
54776.0,STARLINK-5470,PAYLOAD,2023-01-09 22:00:00,15.53805486,0.0001315999999999,53.2138,192.3406,72.9527,56.5915,-0.019319,-0.01138699,0.0,0 STARLINK-5470,1 54776U 22175U   23009.91667824 -.01138699  00000-0 -19319-1 0  9996,2 54776  53.2138 192.3406 0001316  72.9527  56.5915 15.53805486  3369,6783.764,92.676,406.522,404.736,0.0
54776.0,STARLINK-5470,PAYLOAD,2023-01-10 06:00:00,15.52951098,0.0001281999999999,53.2137,190.7372,83.4222,111.255,-0.02027,-0.01156067,0.0,0 STARLINK-5470,1 54776U 22175U   23010.25001157 -.01156067  00000-0 -20270-1 0  9993,2 54776  53.2137 190.7372 0001282  83.4222 111.2550 15.52951098  3413,6786.252,92.727,408.987,407.247,0.0
54776.0,STARLINK-5470,PAYLOAD,2023-01-10 14:00:01,15.52136462,0.0001272,53.2136,189.1381,90.8748,167.8868,-0.02209,-0.01235349,0.0,0 STARLINK-5470,1 54776U 22175U   23010.58334491 -.01235349  00000-0 -22090-1 0  9992,2 54776  53.2136 189.1381 0001272  90.8748 167.8868 15.52136462  1303,6788.626,92.775,411.355,409.628,0.0
54776.0,STARLINK-5470,PAYLOAD,2023-01-10 22:00:00,15.512429,0.0001256,53.2133,187.5423,74.4362,247.4042,-0.021506,-0.0115322,0.0,0 STARLINK-5470,1 54776U 22175U   23010.91667824 -.01153220  00000-0 -21506-1 0  9996,2 54776  53.2133 187.5423 0001256  74.4362 247.4042 15.51242900  3520,6791.233,92.829,413.951,412.245,0.0
54776.0,STARLINK-5470,PAYLOAD,2023-01-11 06:00:02,15.50137239,0.0001431,53.2135,185.9448,89.3978,294.5953,-0.0068515,-0.00374634,0.0,0 STARLINK-5470,1 54776U 22175U   23011.25002315 -.00374634  00000-0 -68515-2 0  9997,2 54776  53.2135 185.9448 0001431  89.3978 294.5953 15.50137239  3570,6794.462,92.895,417.299,415.355,0.0
54776.0,STARLINK-5470,PAYLOAD,2023-01-11 14:00:01,15.49910033,0.000158,53.2139,184.352,85.0955,359.8684,-0.00055331,-0.00031756,0.0,0 STARLINK-5470,1 54776U 22175U   23011.58334491 -.00031756  00000-0 -55331-3 0  9994,2 54776  53.2139 184.3520 0001580  85.0955 359.8684 15.49910033  3622,6795.126,92.909,418.065,415.917,0.0
54776.0,STARLINK-5470,PAYLOAD,2023-01-11 22:00:00,15.49856228,0.0001547,53.2141,182.7604,77.7812,68.1217,0.0009718,0.00055036,0.0,0 STARLINK-5470,1 54776U 22175U   23011.91667824  .00055036  00000-0  97180-3 0  9993,2 54776  53.2141 182.7604 0001547  77.7812  68.1217 15.49856228  1303,6795.283,92.912,418.2,416.097,0.0
54776.0,STARLINK-5470,PAYLOAD,2023-01-12 20:00:01,15.49863594,0.0001401,53.2146,178.3793,76.4184,146.9973,0.00049175,0.00027535,0.0,0 STARLINK-5470,1 54776U 22175U   23012.83334491  .00027535  00000-0  49175-3 0  9990,2 54776  53.2146 178.3793 0001401  76.4184 146.9973 15.49863594  3811,6795.262,92.911,418.079,416.175,0.0
54776.0,STARLINK-5470,PAYLOAD,2023-01-12 22:00:00,15.49848772,0.0001341999999999,53.2145,177.9811,75.054,253.5913,0.0011867,0.00067396,0.0,0 STARLINK-5470,1 54776U 22175U   23012.91667824  .00067396  00000-0  11867-2 0  9993,2 54776  53.2145 177.9811 0001342  75.0540 253.5913 15.49848772  1303,6795.305,92.912,418.082,416.258,0.0
54776.0,STARLINK-5470,PAYLOAD,2023-01-13 14:00:01,15.4990206,0.0001359,53.2147,174.7937,90.8531,359.6005,-0.00048599,-0.00027952,0.0,0 STARLINK-5470,1 54776U 22175U   23013.58334491 -.00027952  00000-0 -48599-3 0  9997,2 54776  53.2147 174.7937 0001359  90.8531 359.6005 15.49902060  3934,6795.149,92.909,417.9380000000001,416.091,0.0
54776.0,STARLINK-5470,PAYLOAD,2023-01-13 22:00:00,15.49870262,0.0001322,53.2142,173.2018,83.7014,67.6837,0.00053463,0.00029992,0.0,0 STARLINK-5470,1 54776U 22175U   23013.91667824  .00029992  00000-0  53463-3 0  9993,2 54776  53.2142 173.2018 0001322  83.7014  67.6837 15.49870262  1306,6795.241999999999,92.911,418.006,416.209,0.0
54776.0,STARLINK-5470,PAYLOAD,2023-01-14 06:00:00,15.49864064,0.0001255,53.2141,171.6068,95.5385,116.7638,0.00080897,0.00045696,0.0,0 STARLINK-5470,1 54776U 22175U   23014.25001157  .00045696  00000-0  80897-3 0  9992,2 54776  53.2141 171.6068 0001255  95.5385 116.7638 15.49864064  4030,6795.26,92.911,417.978,416.273,0.0
54776.0,STARLINK-5470,PAYLOAD,2023-01-15 06:00:00,15.49841966,0.0001554,53.2137,166.8274,82.001,313.1413,0.00063141,0.00035493,0.0,0 STARLINK-5470,1 54776U 22175U   23015.25001157  .00035493  00000-0  63141-3 0  9990,2 54776  53.2137 166.8274 0001554  82.0010 313.1413 15.49841966  4195,6795.325,92.913,418.246,416.134,0.0
54776.0,STARLINK-5470,PAYLOAD,2023-01-15 14:00:01,15.49887615,0.0001578,53.2139,165.2354,79.5312,16.4834,-0.00066648,-0.00038098,0.0,0 STARLINK-5470,1 54776U 22175U   23015.58334491 -.00038098  00000-0 -66648-3 0  9997,2 54776  53.2139 165.2354 0001578  79.5312  16.4834 15.49887615  1302,6795.191999999999,92.91,418.129,415.984,0.0
54776.0,STARLINK-5470,PAYLOAD,2023-01-15 22:00:01,15.498509299999998,0.0001453,53.2139,163.6431,72.9996,84.0023,0.00046063,0.00025746,0.0,0 STARLINK-5470,1 54776U 22175U   23015.91668981  .00025746  00000-0  46063-3 0  9991,2 54776  53.2139 163.6431 0001453  72.9996  84.0023 15.49850930  1308,6795.299,92.912,418.151,416.176,0.0
54776.0,STARLINK-5470,PAYLOAD,2023-01-16 06:00:00,15.49835615,0.0001355,53.2141,162.048,86.7024,131.1324,0.00080059,0.0004516999999999,0.0,0 STARLINK-5470,1 54776U 22175U   23016.25001157  .00045170  00000-0  80059-3 0  9991,2 54776  53.2141 162.0480 0001355  86.7024 131.1324 15.49835615  4342,6795.344,92.913,418.129,416.288,0.0
54776.0,STARLINK-5470,PAYLOAD,2023-01-16 14:00:01,15.4986541,0.0001414,53.2142,160.4561,84.1181,194.5841,-5.5403000000000005e-05,-3.592e-05,0.0,0 STARLINK-5470,1 54776U 22175U   23016.58334491 -.00003592  00000-0 -55403-4 0  9997,2 54776  53.2142 160.4561 0001414  84.1181 194.5841 15.49865410  1303,6795.255999999999,92.911,418.082,416.161,0.0
54776.0,STARLINK-5470,PAYLOAD,2023-01-16 22:00:00,15.49877181,0.0001393,53.2141,158.8637,73.8631,265.7194,0.00032355,0.00017949,0.0,0 STARLINK-5470,1 54776U 22175U   23016.91667824  .00017949  00000-0  32355-3 0  9992,2 54776  53.2141 158.8637 0001393  73.8631 265.7194 15.49877181  4457,6795.222,92.911,418.034,416.14,0.0
54776.0,STARLINK-5470,PAYLOAD,2023-01-17 14:00:01,15.4925262,0.000136,53.2141,155.6775,75.7402,25.3941,-0.024319,-0.01227274,0.0,0 STARLINK-5470,1 54776U 22175U   23017.58334491 -.01227274  00000-0 -24319-1 0  9993,2 54776  53.2141 155.6775 0001360  75.7402  25.3941 15.49252620  4552,6797.048000000001,92.948,419.838,417.989,0.0
54776.0,STARLINK-5470,PAYLOAD,2023-01-17 22:00:00,15.484130800000004,0.0001379,53.2136,154.0873,72.0862,88.6523,-0.0253,-0.01238348,0.0,0 STARLINK-5470,1 54776U 22175U   23017.91667824 -.01238348  00000-0 -25300-1 0  9994,2 54776  53.2136 154.0873 0001379  72.0862  88.6523 15.48413080  1304,6799.505,92.998,422.307,420.432,0.0
54776.0,STARLINK-5470,PAYLOAD,2023-01-18 14:00:01,15.4666703,0.000112,53.2137,150.9123,81.0518,195.8476,-0.026112,-0.01205388,0.0,0 STARLINK-5470,1 54776U 22175U   23018.58334491 -.01205388  00000-0 -26112-1 0  9999,2 54776  53.2137 150.9123 0001120  81.0518 195.8476 15.46667030  1302,6804.621,93.103,427.2480000000001,425.724,0.0
